{"type": "FeatureCollection", "features": [ {"type": "Feature", "properties": {"norad_id": 31073, "name": "FENGYUN 1C DEB", "group": "fengyun-1c-debris", "lat": 69.16713681793898, "lon": 48.74457622146066, "alt_km": 832.3376080051466, "timestamp": "2025-12-19T10:50:01.481462+00:00", "meta": {"OBJECT_NAME": "FENGYUN 1C DEB", "OBJECT_ID": "1999-025BFT", "EPOCH": "2025-12-18T09:02:29.976576", "MEAN_MOTION": 14.248255, "ECCENTRICITY": 0.00450963, "INCLINATION": 99.2192, "RA_OF_ASC_NODE": 202.3511, "ARG_OF_PERICENTER": 269.7915, "MEAN_ANOMALY": 89.8095, "EPHEMERIS_TYPE": 0, "CLASSIFICATION_TYPE": "U", "NORAD_CAT_ID": 31073, "ELEMENT_SET_NO": 999, "REV_AT_EPOCH": 97163, "BSTAR": 0.0009478953, "MEAN_MOTION_DOT": 2.186e-05, "MEAN_MOTION_DDOT": 0}, "tle": {"line1": "1 31073U 99025BFT 25352.37673584  .00002186  00000+0  94790-3 0  9997", "line2": "2 31073  99.2192 202.3511 0045096 269.7915  89.8095 14.24825500971631"}}, "geometry": {"type": "Point", "coordinates": [48.74457622146066, 69.16713681793898]}}, {"type": "Feature", "properties": {"norad_id": 31074, "name": "FENGYUN 1C DEB", "group": "fengyun-1c-debris", "lat": 36.191844528718974, "lon": 95.0971471383138, "alt_km": 856.429582565107, "timestamp": "2025-12-19T10:50:01.481472+00:00", "meta": {"OBJECT_NAME": "FENGYUN 1C DEB", "OBJECT_ID": "1999-025BFU", "EPOCH": "2025-12-18T17:10:14.920608", "MEAN_MOTION": 14.14282346, "ECCENTRICITY": 0.00866655, "INCLINATION": 98.9597, "RA_OF_ASC_NODE": 267.7307, "ARG_OF_PERICENTER": 248.9411, "MEAN_ANOMALY": 110.2477, "EPHEMERIS_TYPE": 0, "CLASSIFICATION_TYPE": "U", "NORAD_CAT_ID": 31074, "ELEMENT_SET_NO": 999, "REV_AT_EPOCH": 95664, "BSTAR": 0.001489856, "MEAN_MOTION_DOT": 2.905e-05, "MEAN_MOTION_DDOT": 0}, "tle": {"line1": "1 31074U 99025BFU 25352.71545047  .00002905  00000+0  14899-2 0  9998", "line2": "2 31074  98.9597 267.7307 0086665 248.9411 110.2477 14.14282346956643"}}, "geometry": {"type": "Point", "coordinates": [95.0971471383138, 36.191844528718974]}}, {"type": "Feature", "properties": {"norad_id": 31078, "name": "FENGYUN 1C DEB", "group": "fengyun-1c-debris", "lat": -54.576087650816234, "lon": 66.60569411808558, "alt_km": 909.2269095857455, "timestamp": "2025-12-19T10:50:01.481482+00:00", "meta": {"OBJECT_NAME": "FENGYUN 1C DEB", "OBJECT_ID": "1999-025BFY", "EPOCH": "2025-12-15T10:54:33.357600", "MEAN_MOTION": 14.22084734, "ECCENTRICITY": 0.0117132, "INCLINATION": 98.8675, "RA_OF_ASC_NODE": 49.9086, "ARG_OF_PERICENTER": 141.0899, "MEAN_ANOMALY": 232.8229, "EPHEMERIS_TYPE": 0, "CLASSIFICATION_TYPE": "U", "NORAD_CAT_ID": 31078, "ELEMENT_SET_NO": 999, "REV_AT_EPOCH": 96931, "BSTAR": 0.00048192939, "MEAN_MOTION_DOT": 1.1e-05, "MEAN_MOTION_DDOT": 0}, "tle": {"line1": "1 31078U 99025BFY 25349.45455275  .00001100  00000+0  48193-3 0  9993", "line2": "2 31078  98.8675  49.9086 0117132 141.0899 232.8229 14.22084734969318"}}, "geometry": {"type": "Point", "coordinates": [66.60569411808558, -54.576087650816234]}}, {"type": "Feature", "properties": {"norad_id": 31081, "name": "FENGYUN 1C DEB", "group": "fengyun-1c-debris", "lat": 56.78807816551553, "lon": -3.961049640543838, "alt_km": 897.5413200414059, "timestamp": "2025-12-19T10:50:01.481493+00:00", "meta": {"OBJECT_NAME": "FENGYUN 1C DEB", "OBJECT_ID": "1999-025BGB", "EPOCH": "2025-12-18T13:05:34.708704", "MEAN_MOTION": 14.06299168, "ECCENTRICITY": 0.00475633, "INCLINATION": 98.7699, "RA_OF_ASC_NODE": 8.7997, "ARG_OF_PERICENTER": 214.4273, "MEAN_ANOMALY": 300.1515, "EPHEMERIS_TYPE": 0, "CLASSIFICATION_TYPE": "U", "NORAD_CAT_ID": 31081, "ELEMENT_SET_NO": 999, "REV_AT_EPOCH": 96542, "BSTAR": -7.0071761e-05, "MEAN_MOTION_DOT": -1.59e-06, "MEAN_MOTION_DDOT": 0}, "tle": {"line1": "1 31081U 99025BGB 25352.54554061 -.00000159  00000+0 -70072-4 0  9991", "line2": "2 31081  98.7699   8.7997 0047563 214.4273 300.1515 14.06299168965428"}}, "geometry": {"type": "Point", "coordinates": [-3.961049640543838, 56.78807816551553]}}, {"type": "Feature", "properties": {"norad_id": 31083, "name": "FENGYUN 1C DEB", "group": "fengyun-1c-debris", "lat": 15.199415042811747, "lon": 108.83793502981534, "alt_km": 687.2102507400932, "timestamp": "2025-12-19T10:50:01.481503+00:00", "meta": {"OBJECT_NAME": "FENGYUN 1C DEB", "OBJECT_ID": "1999-025BGD", "EPOCH": "2025-12-18T19:02:55.752576", "MEAN_MOTION": 14.6218027, "ECCENTRICITY": 0.00317344, "INCLINATION": 98.6468, "RA_OF_ASC_NODE": 110.5194, "ARG_OF_PERICENTER": 286.54, "MEAN_ANOMALY": 228.5427, "EPHEMERIS_TYPE": 0, "CLASSIFICATION_TYPE": "U", "NORAD_CAT_ID": 31083, "ELEMENT_SET_NO": 999, "REV_AT_EPOCH": 97798, "BSTAR": 0.0020649988, "MEAN_MOTION_DOT": 0.0001043, "MEAN_MOTION_DDOT": 0}, "tle": {"line1": "1 31083U 99025BGD 25352.79370084  .00010430  00000+0  20650-2 0  9997", "line2": "2 31083  98.6468 110.5194 0031734 286.5400 228.5427 14.62180270977983"}}, "geometry": {"type": "Point", "coordinates": [108.83793502981534, 15.199415042811747]}}, {"type": "Feature", "properties": {"norad_id": 31085, "name": "FENGYUN 1C DEB", "group": "fengyun-1c-debris", "lat": 80.66716179518494, "lon": 88.73719622050263, "alt_km": 786.9463610823368, "timestamp": "2025-12-19T10:50:01.481514+00:00", "meta": {"OBJECT_NAME": "FENGYUN 1C DEB", "OBJECT_ID": "1999-025BGF", "EPOCH": "2025-12-18T12:43:09.083136", "MEAN_MOTION": 14.30312581, "ECCENTRICITY": 0.0087064, "INCLINATION": 98.9839, "RA_OF_ASC_NODE": 193.5058, "ARG_OF_PERICENTER": 1.2841, "MEAN_ANOMALY": 28.3017, "EPHEMERIS_TYPE": 0, "CLASSIFICATION_TYPE": "U", "NORAD_CAT_ID": 31085, "ELEMENT_SET_NO": 999, "REV_AT_EPOCH": 97799, "BSTAR": 8.9221685e-05, "MEAN_MOTION_DOT": 1.94e-06, "MEAN_MOTION_DDOT": 0}, "tle": {"line1": "1 31085U 99025BGF 25352.52996624  .00000194  00000+0  89222-4 0  9992", "line2": "2 31085  98.9839 193.5058 0087064   1.2841  28.3017 14.30312581977997"}}, "geometry": {"type": "Point", "coordinates": [88.73719622050263, 80.66716179518494]}}, {"type": "Feature", "properties": {"norad_id": 31087, "name": "FENGYUN 1C DEB", "group": "fengyun-1c-debris", "lat": -50.75565485723363, "lon": -176.32616912384162, "alt_km": 602.9834318280064, "timestamp": "2025-12-19T10:50:01.481524+00:00", "meta": {"OBJECT_NAME": "FENGYUN 1C DEB", "OBJECT_ID": "1999-025BGH", "EPOCH": "2025-12-18T13:05:42.825984", "MEAN_MOTION": 14.60362805, "ECCENTRICITY": 0.01716668, "INCLINATION": 98.102, "RA_OF_ASC_NODE": 12.8307, "ARG_OF_PERICENTER": 272.624, "MEAN_ANOMALY": 240.8799, "EPHEMERIS_TYPE": 0, "CLASSIFICATION_TYPE": "U", "NORAD_CAT_ID": 31087, "ELEMENT_SET_NO": 999, "REV_AT_EPOCH": 98854, "BSTAR": 0.00060926496, "MEAN_MOTION_DOT": 3.571e-05, "MEAN_MOTION_DDOT": 0}, "tle": {"line1": "1 31087U 99025BGH 25352.54563456  .00003571  00000+0  60926-3 0  9990", "line2": "2 31087  98.1020  12.8307 0171666 272.6240 240.8799 14.60362805988540"}}, "geometry": {"type": "Point", "coordinates": [-176.32616912384162, -50.75565485723363]}}, {"type": "Feature", "properties": {"norad_id": 31088, "name": "FENGYUN 1C DEB", "group": "fengyun-1c-debris", "lat": 79.46773714446955, "lon": -62.69769132496327, "alt_km": 776.1902860360078, "timestamp": "2025-12-19T10:50:01.481534+00:00", "meta": {"OBJECT_NAME": "FENGYUN 1C DEB", "OBJECT_ID": "1999-025BGJ", "EPOCH": "2025-12-17T16:58:23.303424", "MEAN_MOTION": 14.28736501, "ECCENTRICITY": 0.00282175, "INCLINATION": 99.4119, "RA_OF_ASC_NODE": 52.2781, "ARG_OF_PERICENTER": 47.0485, "MEAN_ANOMALY": 81.2083, "EPHEMERIS_TYPE": 0, "CLASSIFICATION_TYPE": "U", "NORAD_CAT_ID": 31088, "ELEMENT_SET_NO": 999, "REV_AT_EPOCH": 96620, "BSTAR": 0.0012770931, "MEAN_MOTION_DOT": 3.179e-05, "MEAN_MOTION_DDOT": 0}, "tle": {"line1": "1 31088U 99025BGJ 25351.70721416  .00003179  00000+0  12771-2 0  9998", "line2": "2 31088  99.4119  52.2781 0028217  47.0485  81.2083 14.28736501966200"}}, "geometry": {"type": "Point", "coordinates": [-62.69769132496327, 79.46773714446955]}}, {"type": "Feature", "properties": {"norad_id": 31089, "name": "FENGYUN 1C DEB", "group": "fengyun-1c-debris", "lat": -61.74441126930741, "lon": 152.28965940382963, "alt_km": 973.947219620085, "timestamp": "2025-12-19T10:50:01.481544+00:00", "meta": {"OBJECT_NAME": "FENGYUN 1C DEB", "OBJECT_ID": "1999-025BGK", "EPOCH": "2025-12-16T08:54:38.899584", "MEAN_MOTION": 13.88332505, "ECCENTRICITY": 0.02061137, "INCLINATION": 98.9495, "RA_OF_ASC_NODE": 132.2833, "ARG_OF_PERICENTER": 201.7776, "MEAN_ANOMALY": 186.7705, "EPHEMERIS_TYPE": 0, "CLASSIFICATION_TYPE": "U", "NORAD_CAT_ID": 31089, "ELEMENT_SET_NO": 999, "REV_AT_EPOCH": 68110, "BSTAR": 0.00075252237, "MEAN_MOTION_DOT": 1.025e-05, "MEAN_MOTION_DDOT": 0}, "tle": {"line1": "1 31089U 99025BGK 25350.37128356  .00001025  00000+0  75252-3 0  9997", "line2": "2 31089  98.9495 132.2833 0206113 201.7776 186.7705 13.88332505681100"}}, "geometry": {"type": "Point", "coordinates": [152.28965940382963, -61.74441126930741]}}, {"type": "Feature", "properties": {"norad_id": 31090, "name": "FENGYUN 1C DEB", "group": "fengyun-1c-debris", "lat": -76.80443089752023, "lon": 141.359821563182, "alt_km": 507.48908830396704, "timestamp": "2025-12-19T10:50:01.481554+00:00", "meta": {"OBJECT_NAME": "FENGYUN 1C DEB", "OBJECT_ID": "1999-025BGL", "EPOCH": "2025-12-17T20:02:59.212320", "MEAN_MOTION": 15.33969258, "ECCENTRICITY": 0.00544623, "INCLINATION": 98.983, "RA_OF_ASC_NODE": 96.9664, "ARG_OF_PERICENTER": 114.9454, "MEAN_ANOMALY": 245.7456, "EPHEMERIS_TYPE": 0, "CLASSIFICATION_TYPE": "U", "NORAD_CAT_ID": 31090, "ELEMENT_SET_NO": 999, "REV_AT_EPOCH": 916, "BSTAR": 0.0013679195, "MEAN_MOTION_DOT": 0.00047292, "MEAN_MOTION_DDOT": 0}, "tle": {"line1": "1 31090U 99025BGL 25351.83540755  .00047292  00000+0  13679-2 0  9992", "line2": "2 31090  98.9830  96.9664 0054462 114.9454 245.7456 15.33969258  9161"}}, "geometry": {"type": "Point", "coordinates": [141.359821563182, -76.80443089752023]}}]}